NORAD_CAT_ID,OBJECT_NAME,OBJECT_TYPE,EPOCH,MEAN_MOTION,ECCENTRICITY,INCLINATION,RA_OF_ASC_NODE,ARG_OF_PERICENTER,MEAN_ANOMALY,BSTAR,MEAN_MOTION_DOT,MEAN_MOTION_DDOT,TLE_LINE0,TLE_LINE1,TLE_LINE2,SEMIMAJOR_AXIS,PERIOD,APOGEE,PERIGEE,DECAYED
56486.0,STARLINK-6201,PAYLOAD,2024-07-29 21:01:12,14.98337772,0.0002165,69.9994,166.4134,266.1332,93.958,0.00017761,2.027e-05,0.0,0 STARLINK-6201,1 56486U 23064AQ  24211.87583459  .00002027  00000-0  17761-3 0  9999,2 56486  69.9994 166.4134 0002165 266.1332  93.9580 14.98337772 68053,6950.169,96.107,573.539,570.529,0.0
56486.0,STARLINK-6201,PAYLOAD,2024-07-29 22:37:21,14.98320422,0.0003034,69.9994,166.2451,262.8881,97.1933,-1.7913e-05,-3.07e-06,0.0,0 STARLINK-6201,1 56486U 23064AQ  24211.94260831 -.00000307  00000-0 -17913-4 0  9994,2 56486  69.9994 166.2451 0003034 262.8881  97.1933 14.98320422 67704,6950.223,96.108,574.196,569.979,0.0
56486.0,STARLINK-6201,PAYLOAD,2024-07-30 05:01:53,14.98322956,0.0003019,69.9996,165.572,263.0796,97.0019,6.6367e-06,-1.4e-07,0.0,0 STARLINK-6201,1 56486U 23064AQ  24212.20964701 -.00000014  00000-0  66367-5 0  9993,2 56486  69.9996 165.5720 0003019 263.0796  97.0019 14.98322956 68101,6950.215,96.107,574.178,569.981,0.0
56486.0,STARLINK-6201,PAYLOAD,2024-07-30 06:38:01,14.98324546,0.0002989,69.9998,165.4039,263.0173,97.0646,2.6117e-05,2.19e-06,0.0,0 STARLINK-6201,1 56486U 23064AQ  24212.27640568  .00000219  00000-0  26117-4 0  9996,2 56486  69.9998 165.4039 0002989 263.0173  97.0646 14.98324546 67752,6950.21,96.107,574.152,569.997,0.0
56486.0,STARLINK-6201,PAYLOAD,2024-07-30 21:03:13,14.98342389,0.0002872,69.9999,163.8896,263.996,96.0872,-0.00024274,-2.989e-05,0.0,0 STARLINK-6201,1 56486U 23064AQ  24212.87724112 -.00002989  00000-0 -24274-3 0  9999,2 56486  69.9999 163.8896 0002872 263.9960  96.0872 14.98342389 68206,6950.155,96.106,574.016,570.023,0.0
56486.0,STARLINK-6201,PAYLOAD,2024-07-30 22:39:21,14.98342797,0.0002873,70.0,163.7212,263.9838,96.0994,-0.00023071,-2.846e-05,0.0,0 STARLINK-6201,1 56486U 23064AQ  24212.94400004 -.00002846  00000-0 -23071-3 0  9994,2 56486  70.0000 163.7212 0002873 263.9838  96.0994 14.98342797 67856,6950.153,96.106,574.015,570.022,0.0
56486.0,STARLINK-6201,PAYLOAD,2024-07-31 06:40:01,14.98347933,0.0002861,70.0,162.8798,264.5774,95.5059,-0.00018538,-2.305e-05,0.0,0 STARLINK-6201,1 56486U 23064AQ  24213.27779297 -.00002305  00000-0 -18538-3 0  9996,2 56486  70.0000 162.8798 0002861 264.5774  95.5059 14.98347933 68267,6950.137,96.106,573.991,570.014,0.0
56486.0,STARLINK-6201,PAYLOAD,2024-07-31 21:05:14,14.98321789,0.0002807,70.0,161.365,267.4933,92.5905,9.3699e-05,1.025e-05,0.0,0 STARLINK-6201,1 56486U 23064AQ  24213.87864026  .00001025  00000-0  93699-4 0  9995,2 56486  70.0000 161.3650 0002807 267.4933  92.5905 14.98321789 68355,6950.218,96.108,574.034,570.132,0.0
56486.0,STARLINK-6201,PAYLOAD,2024-07-31 22:41:22,14.98322334,0.0002806,70.0001,161.1967,267.4834,92.6004,9.7402e-05,1.069e-05,0.0,0 STARLINK-6201,1 56486U 23064AQ  24213.94540018  .00001069  00000-0  97402-4 0  9999,2 56486  70.0001 161.1967 0002806 267.4834  92.6004 14.98322334 68004,6950.217,96.107,574.032,570.131,0.0
56486.0,STARLINK-6201,PAYLOAD,2024-08-01 06:42:02,14.98330385,0.0002799,70.0001,160.3556,267.5152,92.5687,0.00014713,1.663e-05,0.0,0 STARLINK-6201,1 56486U 23064AQ  24214.27919504  .00001663  00000-0  14713-3 0  9999,2 56486  70.0001 160.3556 0002799 267.5152  92.5687 14.98330385 68410,6950.192,96.107,574.002,570.111,0.0
56486.0,STARLINK-6201,PAYLOAD,2024-08-01 22:43:23,14.98324113,0.0002675,70.0005,158.6733,267.4531,92.6322,0.00030721,3.574e-05,0.0,0 STARLINK-6201,1 56486U 23064AQ  24214.94679481  .00003574  00000-0  30721-3 0  9990,2 56486  70.0005 158.6733 0002675 267.4531  92.6322 14.98324113 68154,6950.211,96.107,573.935,570.217,0.0
56486.0,STARLINK-6201,PAYLOAD,2024-08-02 05:07:54,14.98341194,0.0002604,70.0006,158.0002,265.6161,94.47,0.00014398,1.626e-05,0.0,0 STARLINK-6201,1 56486U 23064AQ  24215.21382693  .00001626  00000-0  14398-3 0  9995,2 56486  70.0006 158.0002 0002604 265.6161  94.4700 14.98341194 68551,6950.158,96.106,573.833,570.213,0.0
56486.0,STARLINK-6201,PAYLOAD,2024-08-02 13:08:35,14.98340299,0.0002652,69.9988,157.1539,280.3225,79.7635,4.0893e-06,-4.4e-07,0.0,0 STARLINK-6201,1 56486U 23064AQ  24215.54763035 -.00000044  00000-0  40893-5 0  9999,2 56486  69.9988 157.1539 0002652 280.3225  79.7635 14.98340299 68604,6950.161,96.106,573.869,570.183,0.0
56486.0,STARLINK-6201,PAYLOAD,2024-08-02 21:09:16,14.98328883,0.0002312,70.0007,156.317,265.8181,94.2714,7.1877e-06,-7e-08,0.0,0 STARLINK-6201,1 56486U 23064AQ  24215.88143792 -.00000007  00000-0  71877-5 0  9993,2 56486  70.0007 156.3170 0002312 265.8181  94.2714 14.98328883 68653,6950.196,96.107,573.668,570.454,0.0
56486.0,STARLINK-6201,PAYLOAD,2024-08-02 22:45:24,14.98325251,0.0002479,70.001,156.1492,264.4971,95.5905,-2.6908e-05,-4.14e-06,0.0,0 STARLINK-6201,1 56486U 23064AQ  24215.94820077 -.00000414  00000-0 -26908-4 0  9995,2 56486  70.0010 156.1492 0002479 264.4971  95.5905 14.98325251 68302,6950.208,96.107,573.796,570.35,0.0
56486.0,STARLINK-6201,PAYLOAD,2024-08-03 13:10:37,14.98325303,0.0002567,70.0009,154.6341,264.1401,95.9465,-6.0598e-06,-1.65e-06,0.0,0 STARLINK-6201,1 56486U 23064AQ  24216.54904166 -.00000165  00000-0 -60598-5 0  9991,2 56486  70.0009 154.6341 0002567 264.1401  95.9465 14.98325303 68391,6950.207,96.107,573.857,570.288,0.0
56486.0,STARLINK-6201,PAYLOAD,2024-08-03 21:11:17,14.98332679,0.0002649,70.0005,153.7917,264.656,95.4297,-4.1419e-05,-5.87e-06,0.0,0 STARLINK-6201,1 56486U 23064AQ  24216.88283715 -.00000587  00000-0 -41419-4 0  9996,2 56486  70.0005 153.7917 0002649 264.6560  95.4297 14.98332679 68806,6950.185,96.107,573.891,570.209,0.0
56486.0,STARLINK-6201,PAYLOAD,2024-08-03 22:47:25,14.98331988,0.0002791,69.9999,153.6218,265.9722,94.1118,-5.2924e-05,-7.24e-06,0.0,0 STARLINK-6201,1 56486U 23064AQ  24216.94959739 -.00000724  00000-0 -52924-4 0  9995,2 56486  69.9999 153.6218 0002791 265.9722  94.1118 14.98331988 68451,6950.187,96.107,573.992,570.112,0.0
56486.0,STARLINK-6201,PAYLOAD,2024-08-04 05:11:54,14.9836747,0.0002795,70.0001,152.9493,261.0889,98.9954,0.00032942,3.844e-05,0.0,0 STARLINK-6201,1 56486U 23064AQ  24217.21660186  .00003844  00000-0  32942-3 0  9992,2 56486  70.0001 152.9493 0002795 261.0889  98.9954 14.98367470 68859,6950.077,96.105,573.885,569.999,0.0
56486.0,STARLINK-6201,PAYLOAD,2024-08-04 13:12:36,14.98345169,0.000217,70.0033,152.107,273.2575,86.8336,0.00014024,1.581e-05,0.0,0 STARLINK-6201,1 56486U 23064AQ  24217.55041838  .00001581  00000-0  14024-3 0  9993,2 56486  70.0033 152.1070 0002170 273.2575  86.8336 14.98345169 68908,6950.146,96.106,573.519,570.503,0.0
56486.0,STARLINK-6201,PAYLOAD,2024-08-04 21:13:18,14.9831648,0.0002781,70.0004,151.2667,265.6977,94.3864,1.3625e-05,7e-07,0.0,0 STARLINK-6201,1 56486U 23064AQ  24217.88423754  .00000070  00000-0  13625-4 0  9999,2 56486  70.0004 151.2667 0002781 265.6977  94.3864 14.98316480 68956,6950.235,96.108,574.033,570.167,0.0
56486.0,STARLINK-6201,PAYLOAD,2024-08-04 22:49:26,14.98316836,0.0002791,70.0004,151.0988,266.979,93.1049,1.9049e-05,1.34e-06,0.0,0 STARLINK-6201,1 56486U 23064AQ  24217.95099782  .00000134  00000-0  19049-4 0  9994,2 56486  70.0004 151.0988 0002791 266.9790  93.1049 14.98316836 68607,6950.234,96.108,574.038,570.159,0.0
56486.0,STARLINK-6201,PAYLOAD,2024-08-05 05:13:57,14.98328979,0.000282,70.0,150.4244,266.3706,93.713,8.4985e-05,9.21e-06,0.0,0 STARLINK-6201,1 56486U 23064AQ  24218.21803010  .00000921  00000-0  84985-4 0  9996,2 56486  70.0000 150.4244 0002820 266.3706  93.7130 14.98328979 69008,6950.196,96.107,574.021,570.101,0.0
56486.0,STARLINK-6201,PAYLOAD,2024-08-05 13:14:39,14.98317717,0.0002257,70.002,149.5792,270.7144,89.3757,-6.3369e-05,-8.49e-06,0.0,0 STARLINK-6201,1 56486U 23064AQ  24218.55184321 -.00000849  00000-0 -63369-4 0  9994,2 56486  70.0020 149.5792 0002257 270.7144  89.3757 14.98317717 69055,6950.231,96.108,573.665,570.527,0.0
56486.0,STARLINK-6201,PAYLOAD,2024-08-05 21:15:20,14.98308677,0.0002691,69.9985,148.7394,267.4306,92.6545,-0.00014679,-1.843e-05,0.0,0 STARLINK-6201,1 56486U 23064AQ  24218.88565229 -.00001843  00000-0 -14679-3 0  9994,2 56486  69.9985 148.7394 0002691 267.4306  92.6545 14.98308677 69109,6950.259,96.108,573.994,570.254,0.0
56486.0,STARLINK-6201,PAYLOAD,2024-08-05 22:51:28,14.98309481,0.0003035,69.9989,148.5737,264.4579,95.6234,-0.00014589,-1.832e-05,0.0,0 STARLINK-6201,1 56486U 23064AQ  24218.95241203 -.00001832  00000-0 -14589-3 0  9993,2 56486  69.9989 148.5737 0003035 264.4579  95.6234 14.98309481 68756,6950.256,96.108,574.231,570.012,0.0
56486.0,STARLINK-6201,PAYLOAD,2024-08-06 05:16:00,14.98325686,0.0002796,70.0002,147.901,267.7608,92.3231,-0.0004316,-5.238e-05,0.0,0 STARLINK-6201,1 56486U 23064AQ  24219.21945099 -.00005238  00000-0 -43160-3 0  9998,2 56486  70.0002 147.9010 0002796 267.7608  92.3231 14.98325686 69155,6950.206,96.107,574.015,570.128,0.0
56486.0,STARLINK-6201,PAYLOAD,2024-08-06 13:16:41,14.98324238,0.0002638,70.0007,147.0591,272.3739,87.7118,-0.00046155,-5.595e-05,0.0,0 STARLINK-6201,1 56486U 23064AQ  24219.55325496 -.00005595  00000-0 -46155-3 0  9991,2 56486  70.0007 147.0591 0002638 272.3739  87.7118 14.98324238 68846,6950.211,96.107,573.909,570.242,0.0
56486.0,STARLINK-6201,PAYLOAD,2024-08-06 21:17:20,14.98317576,0.0002996,69.9999,146.2174,272.7203,87.3613,0.00017573,2.004e-05,0.0,0 STARLINK-6201,1 56486U 23064AQ  24219.88704526  .00002004  00000-0  17573-3 0  9994,2 56486  69.9999 146.2174 0002996 272.7203  87.3613 14.98317576 69257,6950.231,96.108,574.179,570.014,0.0
56486.0,STARLINK-6201,PAYLOAD,2024-08-07 03:41:52,14.98330281,0.0002889,70.0,145.544,271.6209,88.4619,0.00029066,3.377e-05,0.0,0 STARLINK-6201,1 56486U 23064AQ  24220.15407918  .00003377  00000-0  29066-3 0  9995,2 56486  70.0000 145.5440 0002889 271.6209  88.4619 14.98330281 69296,6950.192,96.107,574.065,570.049,0.0
